NORAD_CAT_ID,OBJECT_NAME,OBJECT_TYPE,EPOCH,MEAN_MOTION,ECCENTRICITY,INCLINATION,RA_OF_ASC_NODE,ARG_OF_PERICENTER,MEAN_ANOMALY,BSTAR,MEAN_MOTION_DOT,MEAN_MOTION_DDOT,TLE_LINE0,TLE_LINE1,TLE_LINE2,SEMIMAJOR_AXIS,PERIOD,APOGEE,PERIGEE,DECAYED
54801.0,STARLINK-5429,PAYLOAD,2024-04-27 15:57:39,15.08846815,0.0001381,53.2175,220.9211,98.1511,261.9638,0.00026359,3.91e-05,0.0,0 STARLINK-5429,1 54801U 22175AV  24118.66504018  .00003910  00000-0  26359-3 0  9992,2 54801  53.2175 220.9211 0001381  98.1511 261.9638 15.08846815 77115,6917.86,95.437,540.68,538.769,0.0
54801.0,STARLINK-5429,PAYLOAD,2024-04-28 12:37:42,15.08821289,0.0001279,53.2166,217.0543,82.0513,278.0624,-9.8019e-05,-1.847e-05,0.0,0 STARLINK-5429,1 54801U 22175AV  24119.52618369 -.00001847  00000-0 -98019-4 0  9995,2 54801  53.2166 217.0543 0001279  82.0513 278.0624 15.08821289 75086,6917.938,95.439,540.687,538.918,0.0
54801.0,STARLINK-5429,PAYLOAD,2024-04-28 14:13:05,15.08822854,0.0001315,53.2162,216.7566,81.2146,278.8995,-8.4002e-05,-1.624e-05,0.0,0 STARLINK-5429,1 54801U 22175AV  24119.59242288 -.00001624  00000-0 -84002-4 0  9995,2 54801  53.2162 216.7566 0001315  81.2146 278.8995 15.08822854 77256,6917.933,95.439,540.708,538.888,0.0
54801.0,STARLINK-5429,PAYLOAD,2024-04-28 15:48:27,15.08834034,0.0001307,53.2166,216.4598,84.1411,275.973,2.5137e-05,1.12e-06,0.0,0 STARLINK-5429,1 54801U 22175AV  24119.65865495  .00000112  00000-0  25137-4 0  9996,2 54801  53.2166 216.4598 0001307  84.1411 275.9730 15.08834034 75100,6917.899,95.438,540.668,538.859,0.0
54801.0,STARLINK-5429,PAYLOAD,2024-04-29 12:28:28,15.08841677,0.0001273,53.2169,212.5933,91.6045,268.5093,5.4592e-06,-2.01e-06,0.0,0 STARLINK-5429,1 54801U 22175AV  24120.51977157 -.00000201  00000-0  54592-5 0  9990,2 54801  53.2169 212.5933 0001273  91.6045 268.5093 15.08841677 77395,6917.875,95.437,540.621,538.86,0.0
54801.0,STARLINK-5429,PAYLOAD,2024-04-29 23:36:09,15.08849422,0.0001361,53.2176,210.5106,99.1941,260.9205,7.1884e-05,8.57e-06,0.0,0 STARLINK-5429,1 54801U 22175AV  24120.98344373  .00000857  00000-0  71884-4 0  9997,2 54801  53.2176 210.5106 0001361  99.1941 260.9205 15.08849422 75305,6917.852,95.437,540.658,538.775,0.0
54801.0,STARLINK-5429,PAYLOAD,2024-04-30 12:19:15,15.08837874,0.0001373,53.2182,208.1317,91.1294,268.9856,0.00017148,2.442e-05,0.0,0 STARLINK-5429,1 54801U 22175AV  24121.51337222  .00002442  00000-0  17148-3 0  9996,2 54801  53.2182 208.1317 0001373  91.1294 268.9856 15.08837874 75381,6917.887,95.438,540.702,538.802,0.0
54801.0,STARLINK-5429,PAYLOAD,2024-05-01 12:10:02,15.08828138,0.0001508,53.2185,203.6723,93.9815,266.1349,0.00045077,6.891e-05,0.0,0 STARLINK-5429,1 54801U 22175AV  24122.50697545  .00006891  00000-0  45077-3 0  9997,2 54801  53.2185 203.6723 0001508  93.9815 266.1349 15.08828138 75531,6917.917,95.438,540.825,538.738,0.0
54801.0,STARLINK-5429,PAYLOAD,2024-05-02 12:00:49,15.08834377,0.0001241,53.2161,199.2102,88.0634,272.05,-2.423e-05,-6.73e-06,0.0,0 STARLINK-5429,1 54801U 22175AV  24123.50057465 -.00000673  00000-0 -24230-4 0  9992,2 54801  53.2161 199.2102 0001241  88.0634 272.0500 15.08834377 77847,6917.898,95.438,540.621,538.904,0.0
54801.0,STARLINK-5429,PAYLOAD,2024-05-03 03:54:40,15.08842163,0.0001893,53.2177,196.2393,98.7372,261.3834,1.3041e-05,-8.1e-07,0.0,0 STARLINK-5429,1 54801U 22175AV  24124.16296879 -.00000081  00000-0  13041-4 0  9999,2 54801  53.2177 196.2393 0001893  98.7372 261.3834 15.08842163 75787,6917.874,95.437,541.048,538.429,0.0
54801.0,STARLINK-5429,PAYLOAD,2024-05-03 11:51:35,15.08844918,0.0001511,53.2174,194.7532,97.8675,262.2489,6.1039e-05,6.84e-06,0.0,0 STARLINK-5429,1 54801U 22175AV  24124.49416565  .00000684  00000-0  61039-4 0  9999,2 54801  53.2174 194.7532 0001511  97.8675 262.2489 15.08844918 77996,6917.865,95.437,540.776,538.685,0.0
54801.0,STARLINK-5429,PAYLOAD,2024-05-03 21:23:53,15.08883676,0.0001593,53.2174,192.9689,107.5063,252.6103,-0.00051384,-8.466e-05,0.0,0 STARLINK-5429,1 54801U 22175AV  24124.89158789 -.00008466  00000-0 -51384-3 0  9993,2 54801  53.2174 192.9689 0001593 107.5063 252.6103 15.08883676 78057,6917.747,95.435,540.714,538.51,0.0
54801.0,STARLINK-5429,PAYLOAD,2024-05-04 05:20:52,15.08819262,0.0001588,53.2172,191.482,99.9421,260.1751,2.209e-05,6.3e-07,0.0,0 STARLINK-5429,1 54801U 22175AV  24125.22282522  .00000063  00000-0  22090-4 0  9990,2 54801  53.2172 191.4820 0001588  99.9421 260.1751 15.08819262 75940,6917.944,95.439,540.907,538.71,0.0
54801.0,STARLINK-5429,PAYLOAD,2024-05-04 11:42:24,15.08822754,0.0001516,53.2163,190.2929,99.885,260.2314,-5.4396e-05,-1.153e-05,0.0,0 STARLINK-5429,1 54801U 22175AV  24125.48778062 -.00001153  00000-0 -54396-4 0  9994,2 54801  53.2163 190.2929 0001516  99.8850 260.2314 15.08822754 75983,6917.933,95.439,540.847,538.749,0.0
54801.0,STARLINK-5429,PAYLOAD,2024-05-05 11:33:11,15.08839498,0.0001334,53.2151,185.8299,91.3993,268.7152,0.00024758,3.654e-05,0.0,0 STARLINK-5429,1 54801U 22175AV  24126.48138019  .00003654  00000-0  24758-3 0  9991,2 54801  53.2151 185.8299 0001334  91.3993 268.7152 15.08839498 76137,6917.882,95.438,540.67,538.824,0.0
54801.0,STARLINK-5429,PAYLOAD,2024-05-05 13:08:34,15.08840677,0.0001351,53.2151,185.5324,92.1741,267.9406,0.00045094,6.896e-05,0.0,0 STARLINK-5429,1 54801U 22175AV  24126.54762140  .00006896  00000-0  45094-3 0  9993,2 54801  53.2151 185.5324 0001351  92.1741 267.9406 15.08840677 78307,6917.878,95.438,540.678,538.809,0.0
54801.0,STARLINK-5429,PAYLOAD,2024-05-06 11:23:57,15.08868986,0.0001295,53.2143,181.3697,96.5549,263.5591,0.00099084,0.00015529,0.0,0 STARLINK-5429,1 54801U 22175AV  24127.47497304  .00015529  00000-0  99084-3 0  9994,2 54801  53.2143 181.3697 0001295  96.5549 263.5591 15.08868986 76281,6917.792,95.436,540.553,538.761,0.0
54801.0,STARLINK-5429,PAYLOAD,2024-05-06 20:56:15,15.0887839,0.0001141,53.2132,179.5835,91.3012,268.8111,0.0009361,0.00014657,0.0,0 STARLINK-5429,1 54801U 22175AV  24127.87240382  .00014657  00000-0  93610-3 0  9990,2 54801  53.2132 179.5835 0001141  91.3012 268.8111 15.08878390 78503,6917.763,95.435,540.417,538.839,0.0
54801.0,STARLINK-5429,PAYLOAD,2024-05-07 03:17:48,15.0886466,0.0002447,53.2148,178.3966,81.0185,279.1085,0.00043174,6.594e-05,0.0,0 STARLINK-5429,1 54801U 22175AV  24128.13736722  .00006594  00000-0  43174-3 0  9999,2 54801  53.2148 178.3966 0002447  81.0185 279.1085 15.08864660 76383,6917.805,95.436,541.363,537.977,0.0
54801.0,STARLINK-5429,PAYLOAD,2024-05-07 09:39:20,15.08847871,0.0001356,53.2146,177.2069,79.6225,280.492,1.0119e-05,-1.27e-06,0.0,0 STARLINK-5429,1 54801U 22175AV  24128.40232606 -.00000127  00000-0  10119-4 0  9992,2 54801  53.2146 177.2069 0001356  79.6225 280.4920 15.08847871 76422,6917.856,95.437,540.659,538.783,0.0
54801.0,STARLINK-5429,PAYLOAD,2024-05-08 09:30:08,15.0883649,0.0001173,53.2151,172.7465,76.5322,283.5801,0.00011996,1.622e-05,0.0,0 STARLINK-5429,1 54801U 22175AV  24129.39593724  .00001622  00000-0  11996-3 0  9995,2 54801  53.2151 172.7465 0001173  76.5322 283.5801 15.08836490 76572,6917.891,95.438,540.568,538.945,0.0
54801.0,STARLINK-5429,PAYLOAD,2024-05-09 09:20:55,15.08853613,0.0001218,53.2144,168.2855,74.1157,285.9969,0.00066067,0.00010246,0.0,0 STARLINK-5429,1 54801U 22175AV  24130.38953651  .00010246  00000-0  66067-3 0  9996,2 54801  53.2144 168.2855 0001218  74.1157 285.9969 15.08853613 78880,6917.839,95.437,540.546,538.861,0.0
54801.0,STARLINK-5429,PAYLOAD,2024-05-10 02:50:10,15.08852071,0.0001244,53.214,165.0147,73.878,286.2349,0.00028888,4.314e-05,0.0,0 STARLINK-5429,1 54801U 22175AV  24131.11817307  .00004314  00000-0  28888-3 0  9993,2 54801  53.2140 165.0147 0001244  73.8780 286.2349 15.08852071 76838,6917.843,95.437,540.569,538.848,0.0
54801.0,STARLINK-5429,PAYLOAD,2024-05-10 09:11:43,15.08841923,0.0001199,53.2144,163.8234,73.6543,286.4581,8.357e-05,1.042e-05,0.0,0 STARLINK-5429,1 54801U 22175AV  24131.38313679  .00001042  00000-0  83570-4 0  9990,2 54801  53.2144 163.8234 0001199  73.6543 286.4581 15.08841923 76877,6917.875,95.437,540.569,538.91,0.0
54801.0,STARLINK-5429,PAYLOAD,2024-05-10 18:44:01,15.08846828,0.0001228,53.2151,162.0409,84.6644,275.4488,0.00012339,1.677e-05,0.0,0 STARLINK-5429,1 54801U 22175AV  24131.78057324  .00001677  00000-0  12339-3 0  9994,2 54801  53.2151 162.0409 0001228  84.6644 275.4488 15.08846828 79097,6917.86,95.437,540.574,538.875,0.0
54801.0,STARLINK-5429,PAYLOAD,2024-05-11 12:13:14,15.08880539,0.0001275,53.2143,158.7672,85.0815,275.0323,0.00068955,0.00010715,0.0,0 STARLINK-5429,1 54801U 22175AV  24132.50919451  .00010715  00000-0  68955-3 0  9991,2 54801  53.2143 158.7672 0001275  85.0815 275.0323 15.08880539 77043,6917.756,95.435,540.503,538.739,0.0
54801.0,STARLINK-5429,PAYLOAD,2024-05-11 18:34:46,15.08879718,0.0001286,53.2139,157.5772,83.4277,276.6862,0.00060267,9.327e-05,0.0,0 STARLINK-5429,1 54801U 22175AV  24132.77414844  .00009327  00000-0  60267-3 0  9991,2 54801  53.2139 157.5772 0001286  83.4277 276.6862 15.08879718 79248,6917.759,95.435,540.514,538.734,0.0
54801.0,STARLINK-5429,PAYLOAD,2024-05-12 10:28:40,15.08804794,0.0001392,53.2146,154.6063,107.4362,252.6782,-0.00099334,-0.00016047,0.0,0 STARLINK-5429,1 54801U 22175AV  24133.43657663 -.00016047  00000-0 -99334-3 0  9999,2 54801  53.2146 154.6063 0001392 107.4362 252.6782 15.08804794 77185,6917.988,95.44,540.816,538.89,0.0
54801.0,STARLINK-5429,PAYLOAD,2024-05-12 13:39:26,15.08801808,0.0001325,53.2144,154.0116,111.0792,249.0342,-0.0009114,-0.00014748,0.0,0 STARLINK-5429,1 54801U 22175AV  24133.56905973 -.00014748  00000-0 -91140-3 0  9996,2 54801  53.2144 154.0116 0001325 111.0792 249.0342 15.08801808 79367,6917.997,95.44,540.779,538.945,0.0
54801.0,STARLINK-5429,PAYLOAD,2024-05-13 08:44:05,15.08827409,0.0001448,53.2139,150.4432,121.9146,238.1987,0.0013641,0.00021481,0.0,0 STARLINK-5429,1 54801U 22175AV  24134.36395724  .00021481  00000-0  13641-2 0  9991,2 54801  53.2139 150.4432 0001448 121.9146 238.1987 15.08827409 77324,6917.919,95.438,540.786,538.782,0.0
